KUIPER-00016            
1 63732U 25088J   26004.28663442  .00002748  00000+0  38916-3 0  9991
2 63732  51.9021  36.3849 0011744 214.5728 145.4472 14.79948579 37796
KUIPER-00018            
1 63733U 25088K   26004.29910527 -.00007276  00000+0 -92689-3 0  9992
2 63733  51.9066  25.2893 0012278 239.5258 120.4493 14.79840645 37959
KUIPER-00019            
1 63734U 25088L   26003.08474345 -.00032898  00000+0 -43315-2 0  9991
2 63734  51.9035  29.2007 0007426 244.4519 115.5675 14.79675644 37795
KUIPER-00020            
1 63735U 25088M   26004.29640195  .00000348  00000+0  74882-4 0  9992
2 63735  51.9065  27.8283 0008338 232.1515 127.8694 14.79941583 38125
KUIPER-00021            
1 63736U 25088N   26004.29466794  .00006879  00000+0  92958-3 0  9992
2 63736  51.9025  28.8348 0005993 221.1233 138.9278 14.79964831 37945
KUIPER-00023            
1 63737U 25088P   26004.29370527  .00000123  00000+0  45475-4 0  9990
2 63737  51.9027  30.3045 0010715 244.7473 115.2379 14.79951517 38224
KUIPER-00024            
1 63738U 25088Q   26004.23953833 -.00006990  00000+0 -88960-3 0  9997
2 63738  51.9041  18.0944 0000568  79.3152 280.7874 14.79899200 38513
KUIPER-00025            
1 63739U 25088R   26004.29724417 -.00009605  00000+0 -12364-2 0  9998
2 63739  51.9000  26.3497 0000895  73.6986 286.4075 14.79808714 38267
